{"TopicId":122873,"ForumId":16,"TopicTitle":"Kerbal Orbital Mechanics 101 - By Professor Lynch [1.0.4]","CreatedByName":"Lynch","CreatedById":136598,"CreatedDateTime":"2015-10-12T18:12:34Z","PageNum":1,"Articles":[{"CreatedByName":"Lynch","CreatedById":136598,"CreatedDateTime":"2015-10-12T18:12:34Z","Content":"\n\u003Cp\u003E\u003Cstrong\u003E\u00C3\u00A2\u00E2\u201A\u00AC\u00E2\u20AC\u00B9\u003C/strong\u003EHi everyone! As Wcmill said below, I took the situation from Mun first.\u003C/p\u003E\u003Cp\u003EAll my calculative posts include;\u003C/p\u003E\u003Cp\u003E\u003Ca href=\u0022https://forum.kerbalspaceprogram.com/threads/108496-Kerbal-Aerodynamics-101-By-Professor-Lynch?highlight=professor\u002Blynch\u0022 rel=\u0022external nofollow\u0022\u003E\u003Cstrong\u003EKerbal Aerodynamics 101 - By Professor Lynch [1.0.0]\u003C/strong\u003E\u003C/a\u003E\u003C/p\u003E\u003Cp\u003E\u003Ca href=\u0022https://forum.kerbalspaceprogram.com/threads/125893-Kerbal-Rocketeering-101-By-Professor-Lynch-1-0-2\u0022 rel=\u0022external nofollow\u0022\u003E\u003Cstrong\u003EKerbal Rocketeering 101 - By Professor Lynch [1.0.2]\u003C/strong\u003E\u003C/a\u003E\u003C/p\u003E\u003Cp\u003E\u003Ca href=\u0022https://forum.kerbalspaceprogram.com/threads/136535-Kerbal-Orbital-Mechanics-101-By-Professor-Lynch-1-0-4\u0022 rel=\u0022external nofollow\u0022\u003E\u003Cstrong\u003EKerbal Orbital Mechanics 101 - By Professor Lynch [1.0.4]\u003C/strong\u003E\u003C/a\u003E\u003C/p\u003E\u003Cp\u003EThe purpose of this project is to load the Cycler as it passes as close to LK0 as possible and unload it as it passes near Mun SOI.\u003C/p\u003E\u003Cp\u003E\u003Cimg src=\u0022http://oi59.tinypic.com/2d761dt.jpg\u0022 alt=\u00222d761dt.jpg\u0022\u003E\u003C/p\u003E\u003Cp\u003E**The HyperEdit Orbital Statistics for this Cycler orbit is;\u003C/p\u003E\u003Cp\u003ECurrently editing : Active vessel\u003C/p\u003E\u003Cp\u003EInclination 0\u003C/p\u003E\u003Cp\u003EEccentricity : \u003Cspan style=\u0022color:#ff0000;\u0022\u003E0.65714\u003C/span\u003E\u003C/p\u003E\u003Cp\u003ESemimajor Axis : \u003Cspan style=\u0022color:#ff0000;\u0022\u003E5768975\u003C/span\u003E\u003C/p\u003E\u003Cp\u003ELong of asc node : 0\u003C/p\u003E\u003Cp\u003EArgument of Periapsis :\u003Cspan style=\u0022color:#ff0000;\u0022\u003E -23.5\u003C/span\u003E\u003C/p\u003E\u003Cp\u003EMean anomaly at epoch : 0\u003C/p\u003E\u003Cp\u003EEpoch : 0\u003C/p\u003E\u003Cp\u003EReference body : Kerbin\u003C/p\u003E\u003Cp\u003EIn case some people are wondering what this might be useful in, using some life support mods or realism overhauls mods would force you to use these orbits, or just for fun you might want to do this; the exact outcome will be like this in my game.\u003C/p\u003E\u003Cp\u003EAny time of the day I can launch a shuttle to send supplies to my Munar Station Kerbals within 1 days time.\u003C/p\u003E\u003Cp\u003ECalculating the orbital values took a lot of time on excel yet its worth it.\u003C/p\u003E\u003Cp\u003EThis can be implemented interplanetary, even Duna in the end.\u003C/p\u003E\u003Cp\u003E\u003Cimg src=\u0022http://oi60.tinypic.com/14iz8f9.jpg\u0022 alt=\u002214iz8f9.jpg\u0022\u003E\u003C/p\u003E\u003Cp\u003E\u003Cimg src=\u0022http://oi61.tinypic.com/11kb4ph.jpg\u0022 alt=\u002211kb4ph.jpg\u0022\u003E\u003C/p\u003E\n\u003Cspan class=\u0022ipsType_reset ipsType_medium ipsType_light\u0022 data-excludequote=\u0022\u0022\u003E\n\u003Cstrong\u003EEdited \u003Ctime datetime=\u00222015-10-14T17:30:47Z\u0022 title=\u002210/14/2015 05:30  PM\u0022 data-short=\u00228 yr\u0022\u003EOctober 14, 2015\u003C/time\u003E by Lynch\u003C/strong\u003E\n\u003C/span\u003E\n"},{"CreatedByName":"Laie","CreatedById":110461,"CreatedDateTime":"2015-10-12T18:27:23Z","Content":"\n\u003Cp\u003ECongratulations, you\u0027ve reinvented the Aldrin Cycler.\u003C/p\u003E\n"},{"CreatedByName":"Lynch","CreatedById":136598,"CreatedDateTime":"2015-10-12T18:34:22Z","Content":"\n\u003Cp\u003E\u003Cspan style=\u0022font-size:18px;\u0022\u003E\u003Cstrong\u003EHOLY GREAT THANKS\u003C/strong\u003E\u003C/span\u003E\u003C/p\u003E\u003Cblockquote data-ipsquote=\u0022\u0022 class=\u0022ipsQuote\u0022 data-ipsquote-username=\u0022Laie\u0022 data-cite=\u0022Laie\u0022\u003E\u003Cdiv\u003ECongratulations, you\u0027ve reinvented the Aldrin Cycler.\u003C/div\u003E\u003C/blockquote\u003E\u003Cp\u003E\u003C/p\u003E\u003Cp\u003E\u003Cstrong\u003E\u003Cspan style=\u0022color:#ff0000;\u0022\u003E\u003Cspan style=\u0022font-size:14px;\u0022\u003EQUESTION UPDATE:\u003C/span\u003E\u003C/span\u003E\u003C/strong\u003E\u003C/p\u003E\u003Cp\u003E\u003Cstrong\u003ECan Aldrin Cycler be implemented in KSP guys?\u003C/strong\u003E\u003C/p\u003E\u003Cp\u003E\u003Cspan style=\u0022color:#00ff00;\u0022\u003E\u003Cstrong\u003EAnswer Update\u003C/strong\u003E\u003C/span\u003E\u003C/p\u003E\u003Cp\u003E\u003Cstrong\u003ETo some degree, out of the SOI\u0027s of planets will do\u003C/strong\u003E\u003C/p\u003E\n\u003Cspan class=\u0022ipsType_reset ipsType_medium ipsType_light\u0022 data-excludequote=\u0022\u0022\u003E\n\u003Cstrong\u003EEdited \u003Ctime datetime=\u00222015-10-15T10:15:45Z\u0022 title=\u002210/15/2015 10:15  AM\u0022 data-short=\u00228 yr\u0022\u003EOctober 15, 2015\u003C/time\u003E by Lynch\u003C/strong\u003E\n\u003C/span\u003E\n"},{"CreatedByName":"Tex_NL","CreatedById":58254,"CreatedDateTime":"2015-10-12T18:39:54Z","Content":"\n\u003Cblockquote data-ipsquote=\u0022\u0022 class=\u0022ipsQuote\u0022 data-ipsquote-username=\u0022Lynch\u0022 data-cite=\u0022Lynch\u0022\u003E\u003Cdiv\u003E\u003Cspan style=\u0022font-size:18px;\u0022\u003E\u003Cstrong\u003EHOLY GREAT THANKS\u003C/strong\u003E\u003C/span\u003E\u003Cp\u003E\u003C/p\u003E\u003Cp\u003E\u003Cstrong\u003E\u003Cspan style=\u0022color:#ff0000;\u0022\u003E\u003Cspan style=\u0022font-size:14px;\u0022\u003EQUESTION UPDATE:\u003C/span\u003E\u003C/span\u003E\u003C/strong\u003E\u003C/p\u003E\u003Cp\u003E\u003Cstrong\u003ECan Aldrin Cycler be implemented in KSP guys?\u003C/strong\u003E\u003C/p\u003E\u003C/div\u003E\u003C/blockquote\u003E\u003Cp\u003E\u003Cstrong\u003E\u003Cspan style=\u0022color:#FF0000;\u0022\u003EAnswer update:\u003C/span\u003E\u003C/strong\u003E\u003Cstrong\u003E Search the forum and find your own answer.\u003C/strong\u003E\u003C/p\u003E\u003Cp\u003EIn less than a minute searching I found 10 threads. Oldest oldest one is from October 2012. Most recent one? Just 2 months old.\u003C/p\u003E\n"},{"CreatedByName":"Wcmille","CreatedById":151345,"CreatedDateTime":"2015-10-12T19:33:30Z","Content":"\n\u003Cp\u003EYou might try this in the small with Mun to Minmus first. The first trick is to calculate the correct semi-major axis that gives you the rendezvous behavior you want. The really hard part is the stationkeeping.\u003C/p\u003E\u003Cp\u003E\u003Ca href=\u0022https://forum.kerbalspaceprogram.com/threads/111700-Mun%C3%83%C2%A2%C3%A2%E2%80%9A%C2%AC%C3%A2%E2%82%AC%C5%93Minmus-Cycler\u0022 rel=\u0022external nofollow\u0022\u003Ehttp://forum.kerbalspaceprogram.com/threads/111700-Mun\u00C3\u00A2\u00E2\u201A\u00AC\u00E2\u20AC\u0153Minmus-Cycler\u003C/a\u003E\u003C/p\u003E\n"},{"CreatedByName":"Lynch","CreatedById":136598,"CreatedDateTime":"2015-10-13T20:44:00Z","Content":"\n\u003Cp\u003EThank you Wcmille, I have updated the Thread.\u003C/p\u003E\u003Cblockquote data-ipsquote=\u0022\u0022 class=\u0022ipsQuote\u0022 data-ipsquote-username=\u0022Wcmille\u0022 data-cite=\u0022Wcmille\u0022\u003E\u003Cdiv\u003EYou might try this in the small with Mun to Minmus first. The first trick is to calculate the correct semi-major axis that gives you the rendezvous behavior you want. The really hard part is the stationkeeping.\u003Cp\u003E\u003Ca href=\u0022https://forum.kerbalspaceprogram.com/threads/111700-Mun%C3%83%C2%A2%C3%A2%E2%80%9A%C2%AC%C3%A2%E2%82%AC%C5%93Minmus-Cycler\u0022 rel=\u0022external nofollow\u0022\u003Ehttp://forum.kerbalspaceprogram.com/threads/111700-Mun\u00C3\u00A2\u00E2\u201A\u00AC\u00E2\u20AC\u0153Minmus-Cycler\u003C/a\u003E\u003C/p\u003E\u003C/div\u003E\u003C/blockquote\u003E\n"},{"CreatedByName":"Laie","CreatedById":110461,"CreatedDateTime":"2015-10-13T21:58:24Z","Content":"\n\u003Cblockquote data-ipsquote=\u0022\u0022 class=\u0022ipsQuote\u0022 data-ipsquote-username=\u0022Lynch\u0022 data-cite=\u0022Lynch\u0022\u003E\u003Cdiv\u003E\u003Cp\u003EThe purpose of this project is to load the Cycler as it passes through 100km Periapsis with a Supply ship and let it reach my Mun station as it passes close to 9.000km Apoapsis.\u003C/p\u003E\u003Cp\u003EPlease help me make this more efficient.\u003C/p\u003E\u003C/div\u003E\u003C/blockquote\u003E\u003Cp\u003EIn strict stock KSP a cycler is never efficient. Catching the cycler, then leaving it for the Mun, will take more fuel than a straightforward transfer burn.\u003C/p\u003E\u003Cp\u003EIn \u0022Real Life\u0022 and in the context of Mars, the point of a cycler is that it holds e.g. treadmills, bunks, power supply (=reactor?), lots of mass to shield the crew from solar radiation, in short: all the heavy / durable / reusable stuff. \u003C/p\u003E\u003Cp\u003EThe crew and their consumables need considerably more dV than for a direct Mars transfer, but they can arrive in a comparatively lightweight vessel. The long-term habitat is launched once and can serve several missions while it requires only miniscule amounts of fuel to stay on track.\u003C/p\u003E\n"},{"CreatedByName":"Lynch","CreatedById":136598,"CreatedDateTime":"2015-10-13T22:15:16Z","Content":"\n\u003Cblockquote data-ipsquote=\u0022\u0022 class=\u0022ipsQuote\u0022 data-ipsquote-username=\u0022Laie\u0022 data-cite=\u0022Laie\u0022\u003E\u003Cdiv\u003EIn strict stock KSP a cycler is never efficient. Catching the cycler, then leaving it for the Mun, will take more fuel than a straightforward transfer burn.\u003Cp\u003EIn \u0022Real Life\u0022 and in the context of Mars, the point of a cycler is that it holds e.g. treadmills, bunks, power supply (=reactor?), lots of mass to shield the crew from solar radiation, in short: all the heavy / durable / reusable stuff. \u003C/p\u003E\u003Cp\u003EThe crew and their consumables need considerably more dV than for a direct Mars transfer, but they can arrive in a comparatively lightweight vessel. The long-term habitat is launched once and can serve several missions while it requires only miniscule amounts of fuel to stay on track.\u003C/p\u003E\u003C/div\u003E\u003C/blockquote\u003E\u003Cp\u003EI am aware of this, yet I am insisting to do this, either I am playing stock KSP, or roleplaying or just for understanding the basics of orbital mechanics.\u003C/p\u003E\u003Cp\u003EI have done quite a lot of research, about period types, Sidereal, Synodical and Semimajor axis calculations; I am trying to understand the orbital mechanics; therefore my question persists.\u003C/p\u003E\u003Cp\u003EAd astra per astra\u003C/p\u003E\n"},{"CreatedByName":"Wcmille","CreatedById":151345,"CreatedDateTime":"2015-10-14T00:19:44Z","Content":"\n\u003Cp\u003EI don\u0027t understand the burn you are trying to optimize. I think you want your taxis to enter mun SOI, but not the cycler, right?\u003C/p\u003E\n"},{"CreatedByName":"Lynch","CreatedById":136598,"CreatedDateTime":"2015-10-14T00:31:42Z","Content":"\n\u003Cblockquote data-ipsquote=\u0022\u0022 class=\u0022ipsQuote\u0022 data-ipsquote-username=\u0022Wcmille\u0022 data-cite=\u0022Wcmille\u0022\u003E\u003Cdiv\u003EI don\u0027t understand the burn you are trying to optimize. I think you want your taxis to enter mun SOI, but not the cycler, right?\u003C/div\u003E\u003C/blockquote\u003E\u003Cp\u003EI want a perfect position for such an orbit, either it remains trailing, leading, bottom or top of the mun SOI, or if can be done, an actual cycler trough MUN 20k orbit to KERBIN 80k orbit, yet this is not going to be stable without doing correction burns, and I want such a thing without correction burns. so, above situation prevails.\u003C/p\u003E\u003Cp\u003ESince this is a Time/Resource efficiency problem; dV wasn\u0027t that important.\u003C/p\u003E\u003Cp\u003EYet it was in the equation. After solving my problem of 6d 2h 36m 24s Mun Orbit with a particualy fraction of my orbit sets; I have seen 3 cycles per 1 mun cycle was the most efficient. Yet it gave me this result.\u003C/p\u003E\u003Cp\u003EStill trying on.\u003C/p\u003E\u003Cp\u003EEDIT: Tried with 4 cycles per 1 mun cycle, The orbit\u0027s apoapsis doesn\u0027t reach the Mun Bottom SOI and Kerbin Periapsis falls below 70,000. I don\u0027t want to try with decimal cycles since there won\u0027t be any end to it and the cycles would become too difficult to calculate.\u003C/p\u003E\n\u003Cspan class=\u0022ipsType_reset ipsType_medium ipsType_light\u0022 data-excludequote=\u0022\u0022\u003E\n\u003Cstrong\u003EEdited \u003Ctime datetime=\u00222015-10-15T10:17:45Z\u0022 title=\u002210/15/2015 10:17  AM\u0022 data-short=\u00228 yr\u0022\u003EOctober 15, 2015\u003C/time\u003E by Lynch\u003C/strong\u003E\n\u003C/span\u003E\n"},{"CreatedByName":"Lynch","CreatedById":136598,"CreatedDateTime":"2015-10-14T17:01:24Z","Content":"\n\u003Cp\u003Eas \u0022\u003Ca href=\u0022https://forum.kerbalspaceprogram.com/members/143077-xendelaar\u0022 rel=\u0022external nofollow\u0022\u003E\u003Cspan style=\u0022text-decoration:underline;\u0022\u003Exendalaar\u0022 \u003C/span\u003E\u003C/a\u003Esaid im sharing my work sheet\u003C/p\u003E\u003Cblockquote data-ipsquote=\u0022\u0022 class=\u0022ipsQuote\u0022\u003E\u003Cdiv\u003E\u003Cspan style=\u0022color:#3E3E3E;\u0022\u003Ecool. i would love to see that excel sheet. here, have some rep\u003C/span\u003E\u003C/div\u003E\u003C/blockquote\u003E\u003Cp\u003E\u003Ca href=\u0022http://www.filedropper.com/kspcyclers\u0022 rel=\u0022external nofollow\u0022\u003Ehttp://www.filedropper.com/kspcyclers\u003C/a\u003E\u003C/p\u003E\u003Cp\u003EMost of the work is not organized yet but my work takes place in 2nd page, main calculations include;\u003C/p\u003E\u003Cp\u003ECalculation sidereal orbits and synodical orbits, then calculating such a Semimajor axis that its Period will be a fraction or a multiple period of the Celestial body that is being cycled to and fro Kerbin.\u003C/p\u003E\u003Cp\u003EFurther advanced calculations need me to upgrade the calculation formulas such as Duna-Eeelo cyclers.\u003C/p\u003E\u003Cp\u003EI am now preparing a new post up on calculations; for whom interested I await you on the links of the 1st post of this thread. =)\u003C/p\u003E\n\u003Cspan class=\u0022ipsType_reset ipsType_medium ipsType_light\u0022 data-excludequote=\u0022\u0022\u003E\n\u003Cstrong\u003EEdited \u003Ctime datetime=\u00222015-10-14T17:26:55Z\u0022 title=\u002210/14/2015 05:26  PM\u0022 data-short=\u00228 yr\u0022\u003EOctober 14, 2015\u003C/time\u003E by Lynch\u003C/strong\u003E\n\u003C/span\u003E\n"},{"CreatedByName":"Champ","CreatedById":96425,"CreatedDateTime":"2015-10-15T09:02:55Z","Content":"\n\u003Cp\u003EThe title of your thread (\u0022Kerbal Orbital Mechanics 101 - By Professor Lynch [1.0.4]\u0022) suggest you want to teach orbital mechanics to new players.\u003C/p\u003E\u003Cp\u003EBut the content of your thread suggest you want to learn from experienced players.\u003C/p\u003E\n"},{"CreatedByName":"Lynch","CreatedById":136598,"CreatedDateTime":"2015-10-15T10:14:28Z","Content":"\n\u003Cp\u003EI did my calculations, and share my work; yet I am open to new ideas, I am willing to learn aswell from any person more experienced in this subject. Bring your flame down mate\u003C/p\u003E\u003Cblockquote data-ipsquote=\u0022\u0022 class=\u0022ipsQuote\u0022 data-ipsquote-username=\u0022Champ\u0022 data-cite=\u0022Champ\u0022\u003E\u003Cdiv\u003EThe title of your thread (\u0022Kerbal Orbital Mechanics 101 - By Professor Lynch [1.0.4]\u0022) suggest you want to teach orbital mechanics to new players.\u003Cp\u003EBut the content of your thread suggest you want to learn from experienced players.\u003C/p\u003E\u003C/div\u003E\u003C/blockquote\u003E\n"}]}